STARLINK-34321          
1 64267U 25120M   26068.45592938  .00014394  00000+0  49717-3 0  9993
2 64267  53.1592 117.5427 0001172  90.9956 269.1179 15.30199823 43887
KUIPER-00222            
1 67782U 26030U   26068.67636257  .00055223  00000+0  17317-2 0  9992
2 67782  51.8817 219.7147 0012800  40.1845 320.0084 15.32445377  5087
